240P/NEAT,e,23.5371,74.9163,352.0363,3.861175,0.1299047,0.45035115,301.1632,09/23.0/2024,2000,g 11.0,4.0
# From MPEC 2022-J42
241P/LINEAR,e,21.0948,305.4451,111.5565,4.926019,0.0901488,0.61038707,104.0992,09/23.0/2024,2000,g 13.5,4.0
# From MPEC 2024-RQ6
242P/Spahr,e,32.4384,180.3265,244.8719,5.534430,0.0756998,0.28237991,353.1039,09/23.0/2024,2000,g  8.0,4.0
# From MPEC 2022-K19
243P/NEAT,e,7.6440,87.6481,283.6787,3.828009,0.1315966,0.36048832,291.5164,09/23.0/2024,2000,g 12.5,4.0
# From MPEC 2024-L77
244P/Scotti,e,2.2584,354.0102,93.3614,4.902049,0.0908108,0.19986459,61.1876,09/23.0/2024,2000,g  9.0,4.0
# From MPEC 2022-CN4
245P/WISE,e,21.1738,316.8889,316.5329,4.051041,0.1208799,0.45568763,292.9950,09/23.0/2024,2000,g 14.0,4.0
# From MPEC 2024-L77
246P/NEAT,e,17.7347,74.2408,185.2533,4.189209,0.1149492,0.25205788,153.9054,09/23.0/2024,2000,g 10.5,4.0
# From MPEC 2021-F20
247P/LINEAR,e,13.6585,54.0033,47.4605,3.965136,0.1248294,0.62545416,264.7575,09/23.0/2024,2000,g 16.5,2.0
# From MPC 75730
248P/Gibbs,e,6.3515,207.8111,209.9546,5.983750,0.0673355,0.63933266,335.9690,09/23.0/2024,2000,g 14.0,4.0
# From MPEC 2022-YN2
249P/LINEAR,e,8.3854,239.0436,65.7454,2.764899,0.2143805,0.81935185,331.7674,09/23.0/2024,2000,g 15.5,4.0
# From MPC110497
250P/Larson,e,13.1574,73.2836,45.8056,3.778740,0.1341787,0.39881289,328.3396,09/23.0/2024,2000,g 14.5,4.0
# From MPEC 2024-PC5
251P/LINEAR,e,23.3870,219.3398,31.2074,3.512880,0.1496956,0.50433304,33.3499,09/23.0/2024,2000,g 16.5,2.0
# From MPEC 2021-S45
252P/LINEAR,e,10.4174,190.9062,343.3795,3.051234,0.1849229,0.67088056,216.5107,09/23.0/2024,2000,g 17.5,4.0
# From MPEC 2024-RQ6
253P/PANSTARRS,e,4.9442,146.8653,230.8158,3.462171,0.1529964,0.41458971,355.7190,09/23.0/2024,2000,g 14.5,4.0
# From MPEC 2024-EF7
254P/McNaught,e,32.5444,129.1847,219.7451,4.619059,0.0992828,0.31883498,144.4027,09/23.0/2024,2000,g 11.0,4.0
# From NK 2214
255P/Levy,e,13.4033,275.6366,186.0360,2.942411,0.1952761,0.71195197,145.7143,09/23.0/2024,2000,g  9.0,4.0
# From MPEC 2024-L77
256P/LINEAR,e,27.6243,81.3289,124.1112,4.636591,0.0987202,0.41786830,55.3847,09/23.0/2024,2000,g 14.0,2.0
# From MPEC 2023-A50
257P/Catalina,e,20.2184,207.7203,117.7678,3.766889,0.1348124,0.42904367,198.8131,09/23.0/2024,2000,g 11.5,4.0
# From MPEC 2021-U31
258P/PANSTARRS,e,6.7504,126.2335,25.5920,4.390254,0.1071444,0.20916927,166.9940,09/23.0/2024,2000,g 13.0,4.0
# From MPC106349
259P/Garradd,e,15.8985,51.3709,257.5248,2.728925,0.2186335,0.33877992,209.5245,09/23.0/2024,2000,g 15.5,4.0
# From MPEC 2022-O01
260P/McNaught,e,15.0465,349.3241,18.4829,3.623480,0.1428944,0.60898284,262.7091,09/23.0/2024,2000,g 13.5,4.0
# From MPEC 2021-J28
261P/Larson,e,6.0727,291.0554,67.3576,3.490184,0.1511581,0.42296283,290.4187,09/23.0/2024,2000,g 14.0,4.0
# From MPC 82322
262P/McNaught-Russell,e,29.2699,217.8886,171.0668,6.869440,0.0547422,0.81623591,235.5678,09/23.0/2024,2000,g 13.5,4.0
# From MPEC 2024-L77
263P/Gibbs,e,11.5255,105.5021,35.0243,3.041187,0.1858401,0.59382744,111.7482,09/23.0/2024,2000,g 18.0,4.0
# From MPC114608
264P/Larsen,e,25.3370,219.4044,341.2678,4.020209,0.1222731,0.34218852,249.5437,09/23.0/2024,2000,g 13.0,4.0
# From MPC 79870
265P/LINEAR,e,14.3489,342.9396,33.5374,4.259734,0.1121064,0.64711220,148.1927,09/23.0/2024,2000,g 14.5,4.0
# From MPEC 2021-F20
266P/Christensen,e,3.4276,4.9559,97.7328,3.528984,0.1486722,0.34076746,240.2770,09/23.0/2024,2000,g 14.7,4.0
# From MPC114608
267P/LONEOS,e,6.1427,228.5985,114.2378,3.210144,0.1713631,0.61438004,25.9058,09/23.0/2024,2000,g 19.5,4.0
# From MPC 92277
268P/Bernardi,e,15.6406,124.7144,0.0050,4.629480,0.0989477,0.47221382,351.5140,09/23.0/2024,2000,g 14.0,4.0
# From MPEC 2023-J29
269P/Jedicke,e,7.0846,241.7734,225.6809,7.060762,0.0525323,0.43314042,191.1964,09/23.0/2024,2000,g 10.0,4.0
# From MPC 88332
270P/Gehrels,e,2.9252,223.0377,209.8677,6.651442,0.0574553,0.47011444,236.2916,09/23.0/2024,2000,g  8.0,4.0
# From MPC 92277
271P/van Houten-Lemmon,e,6.8690,9.3090,36.5536,7.032455,0.0528498,0.39612494,215.4517,09/23.0/2024,2000,g 11.0,4.0
# From MPEC 2023-D41
272P/NEAT,e,18.0791,109.4415,27.8821,4.461858,0.1045756,0.45528748,83.5361,09/23.0/2024,2000,g 16.0,2.0
# From MPC 82723
273P/Pons-Gambart,e,136.4849,320.3972,20.1770,31.97454,0.0054513,0.97445267,0.0000,12/22.3076/2012,2000,g 11.5,4.0
# From MPEC 2024-GJ3
274P/Tombaugh-Tenagra,e,15.8207,81.3180,38.4761,4.378138,0.1075895,0.44007465,96.6371,09/23.0/2024,2000,g 13.0,4.0
# From MPC 81862
275P/Hermann,e,21.2561,348.6898,173.9094,5.791743,0.0707115,0.71351193,305.8900,09/23.0/2024,2000,g 17.0,4.0
# From MPEC 2024-RQ6
276P/Vorobjov,e,14.8060,211.3411,199.2740,5.345350,0.0797517,0.27063984,353.7102,09/23.0/2024,2000,g 11.5,4.0
# From MPEC 2021-F20
277P/LINEAR,e,16.7904,276.2641,152.4112,3.853564,0.1302898,0.50647081,177.4174,09/23.0/2024,2000,g 15.1,4.0
# From MPEC 2021-S45
278P/McNaught,e,6.6528,14.7495,237.9189,3.663105,0.1405821,0.44366619,206.2838,09/23.0/2024,2000,g 14.0,4.0
# From MPEC 2024-A43
279P/LaSagra,e,5.0505,346.1223,5.7095,3.570560,0.1460830,0.39932040,76.4016,09/23.0/2024,2000,g 14.0,4.0
# From MPEC 2024-RQ6
280P/Larsen,e,11.7743,131.3754,104.6919,4.526361,0.1023482,0.41681933,42.5234,09/23.0/2024,2000,g 12.5,4.0
# From MPEC 2023-D41
281P/MOSS,e,4.7176,87.1668,26.8548,4.884144,0.0913106,0.17377618,54.6001,09/23.0/2024,2000,g 11.0,4.0
# From MPC133426
282P/,e,5.8127,217.6114,9.1890,4.236436,0.1130325,0.18762513,120.4444,09/23.0/2024,2000,g 13.5,2.0
# From MPEC 2022-K19
283P/Spacewatch,e,14.4632,161.1207,22.1564,4.132816,0.1173100,0.48458663,130.3564,09/23.0/2024,2000,g 16.0,2.0
# From MPEC 2024-D33
284P/McNaught,e,11.8556,144.2682,202.4769,3.678066,0.1397252,0.37464344,154.6794,09/23.0/2024,2000,g 13.0,4.0
# From MPEC 2024-L77
285P/LINEAR,e,25.0362,185.5071,178.3905,4.505754,0.1030512,0.61830865,63.8844,09/23.0/2024,2000,g 15.0,4.0
# From MPEC 2024-LE0
286P/Christensen,e,17.1439,283.5969,24.5234,4.095122,0.1189334,0.42781328,102.8943,09/23.0/2024,2000,g 14.0,4.0
# From MPEC 2024-GJ3
287P/Christensen,e,16.3129,138.9592,189.5490,4.173481,0.1155996,0.27243187,51.2368,09/23.0/2024,2000,g 13.5,4.0
# From MPC133426
288P/,e,3.2383,83.1050,280.3054,3.049647,0.1850673,0.19994811,173.3243,09/23.0/2024,2000,g 16.0,2.0
# From MPEC 2024-O39
289P/Blanpain,e,5.9003,68.8919,9.8724,3.043984,0.1855840,0.68644946,322.2668,09/23.0/2024,2000,g 19.0,4.0
# From MPC 95214
290P/Jager,e,20.0481,302.6767,181.8311,6.215349,0.0636071,0.62801045,247.8330,09/23.0/2024,2000,g 10.5,4.0
# From MPEC 2024-L77
291P/NEAT,e,6.3098,237.6594,173.5286,4.533960,0.1020910,0.43406274,51.8583,09/23.0/2024,2000,g 13.0,4.0
# From MPEC 2022-K19
292P/Li,e,24.3196,90.8969,319.6366,6.097399,0.0654617,0.59001006,253.8100,09/23.0/2024,2000,g 12.5,4.0
# From MPEC 2022-L66
293P/Spacewatch,e,9.0615,78.3670,40.9538,3.638557,0.1420072,0.41926989,194.9672,09/23.0/2024,2000,g 14.5,4.0
# From MPEC 2020-SI8
294P/LINEAR,e,18.1554,311.2983,235.8629,3.194455,0.1726271,0.60049311,304.2869,09/23.0/2024,2000,g 15.5,4.0
# From MPEC 2022-K19
295P/LINEAR,e,21.0801,7.3942,72.9967,5.301150,0.0807512,0.61763681,306.0829,09/23.0/2024,2000,g 12.0,4.0
# From MPEC 2021-N06
296P/Garradd,e,25.3542,263.5204,349.9220,3.483607,0.1515864,0.48223546,221.9569,09/23.0/2024,2000,g 14.0,4.0
# From MPC102956
297P/Beshore,e,11.0395,92.6027,141.4564,3.535401,0.1482675,0.30170088,197.8623,09/23.0/2024,2000,g 15.0,4.0
# From MPC114609
298P/Christensen,e,7.8712,52.7968,100.5972,3.588854,0.1449674,0.38661326,214.2963,09/23.0/2024,2000,g 15.0,4.0
# From MPEC 2024-RQ6
299P/Catalina-PANSTARRS,e,10.4686,271.5807,323.6663,4.389462,0.1071734,0.28093705,15.6220,09/23.0/2024,2000,g 11.5,4.0
# From MPEC 2023-VM5
300P/Catalina,e,5.6762,95.6193,222.9052,2.697026,0.2225237,0.69184466,118.1422,09/23.0/2024,2000,g 16.0,4.0
# From MPC 89014
301P/LINEAR-NEAT,e,10.3296,351.0679,193.4689,5.748784,0.0715056,0.58594278,264.6902,09/23.0/2024,2000,g 13.0,4.0
# From MPEC 2024-RQ6
302P/Lemmon-PANSTARRS,e,6.0352,121.7143,208.6258,4.269158,0.1117354,0.22967434,341.2970,09/23.0/2024,2000,g 12.5,4.0
# From MPC 92278
303P/NEAT,e,7.0164,347.9644,357.0187,5.040960,0.0870832,0.51045690,315.1641,09/23.0/2024,2000,g 13.5,4.0
# From MPEC 2022-K19
304P/Ory,e,2.6061,58.9410,335.2687,3.150140,0.1762826,0.60095141,264.6100,09/23.0/2024,2000,g 16.5,4.0
# From MPEC 2024-RQ6
305P/Skiff,e,11.6713,240.1064,147.4252,4.635246,0.0987631,0.69395241,354.5508,09/23.0/2024,2000,g 18.0,4.0
# From MPC 92278
306P/LINEAR,e,8.3033,341.3620,0.8943,3.124568,0.1784510,0.59266094,304.2104,09/23.0/2024,2000,g 19.0,4.0
# From MPC 92278
307P/LINEAR,e,4.4357,158.1449,222.2262,5.787918,0.0707816,0.67531304,251.6574,09/23.0/2024,2000,g 15.0,4.0
# From MPEC 2022-C56
308P/Lagerkvist-Carsenty,e,4.8531,63.0968,333.7327,6.599991,0.0581285,0.36454198,198.7228,09/23.0/2024,2000,g 13.0,2.0
# From MPEC 2024-BE0
309P/LINEAR,e,17.0214,10.1368,49.9067,4.374698,0.1077164,0.61832710,19.1764,09/23.0/2024,2000,g 15.0,4.0
# From MPEC 2024-LE0
310P/Hill,e,13.1197,8.8864,31.5355,4.182437,0.1152285,0.42231567,38.6825,09/23.0/2024,2000,g 13.5,4.0
# From MPEC 2024-A43
311P/PANSTARRS,e,4.9713,279.1721,144.2146,2.188265,0.3044768,0.11563513,80.7548,09/23.0/2024,2000,g 17.0,4.0
# From MPEC 2024-NE4
312P/NEAT,e,19.7494,144.6500,207.7083,3.471594,0.1523739,0.42696248,222.3614,09/23.0/2024,2000,g 16.0,4.0
# From MPEC 2024-N80
313P/Gibbs,e,10.9803,105.9264,254.9599,3.163963,0.1751286,0.23463853,283.7122,09/23.0/2024,2000,g 15.0,4.0
# From MPC105243
314P/Montani,e,3.9914,267.6200,213.8463,7.250571,0.0504831,0.41816368,146.5842,09/23.0/2024,2000,g  9.5,4.0
# From MPEC 2023-J29
315P/LONEOS,e,17.7326,68.6710,65.8447,4.937958,0.0898221,0.52178255,256.7296,09/23.0/2024,2000,g 11.0,4.0
# From MPEC 2024-NE4
316P/LONEOS-Christensen,e,9.8887,245.9346,188.3060,4.425525,0.1058661,0.15935974,357.7789,09/23.0/2024,2000,g 13.5,4.0
# From MPEC 2020-C98
317P/WISE,e,11.9732,275.4691,334.8537,2.960356,0.1935032,0.57180489,282.0359,09/23.0/2024,2000,g 17.5,4.0
# From MPC102103
